DELTA 1 R/B             
1 20323U 89089B   25316.56409939  .00000771  00000+0  19946-3 0  9992
2 20323  97.0779 177.5803 0070348 131.8358 228.8875 14.50534587878750
ARIANE 40 R/B           
1 20443U 90005H   25316.64773701  .00000737  00000+0  24859-3 0  9996
2 20443  98.3284  15.6702 0009959 190.5370 169.5611 14.39763684875962
DELTA 2 R/B(1)          
1 20453U 90008B   25316.80839500  .00061826  00000+0  10635-2 0  9990
2 20453  35.6067 213.4052 0118082 265.8813  92.8415 15.42460788908004
COSMOS 2058             
1 20465U 90010A   25316.81090759  .00008008  00000+0  48892-3 0  9992
2 20465  82.4658 162.4744 0011107  23.3716 336.8015 15.10122872924596
SL-14 R/B               
1 20466U 90010B   25316.59440949  .00000906  00000+0  10727-3 0  9993
2 20466  82.5049  17.3559 0019030 329.5954  30.4155 14.83430654911128
SL-14 R/B               
1 20511U 90018B   25316.76971218  .00000812  00000+0  99124-4 0  9994
2 20511  82.5206 332.3805 0017811 114.8036 245.5034 14.82003372905264
HST                     
1 20580U 90037B   25316.74302544  .00012631  00000+0  44825-3 0  9998
2 20580  28.4675 116.5719 0001370 260.9920  99.0520 15.27460761755403
SL-16 R/B               
1 20625U 90046B   25316.63080272 -.00000189  00000+0 -72887-4 0  9994
2 20625  70.9973 183.7529 0012284 128.3645 231.8584 14.14990700831832
COSMOS 2084             
1 20663U 90055A   25316.59984138  .00006536  00000+0  46853-3 0  9998
2 20663  62.7922  14.6701 0036568 171.0980 189.0777 15.04753971918694
SL-6 R/B(2)             
1 20666U 90055D   25316.29529633  .00006107  00000+0  46702-3 0  9990
2 20666  62.7840 292.8436 0010769 282.3661  77.6232 15.02853617920549
SL-8 R/B                
1 20775U 90078B   25316.54601441  .00027879  00000+0  86051-3 0  9992
2 20775  82.9076 356.2952 0381135  46.9569 316.2903 14.84255010791895
SL-8 R/B                
1 21088U 91006B   25316.81781600  .00000184  00000+0  16991-3 0  9994
2 21088  82.9415 256.9693 0022752   6.2588  22.3594 13.77484011747983
