CCSDS_OMM_VERS = 2.0
CREATION_DATE  = 
ORIGINATOR     = 

OBJECT_NAME    = DELTA 1 R/B
OBJECT_ID      = 1989-089B
CENTER_NAME    = EARTH
REF_FRAME      = TEME
TIME_SYSTEM    = UTC
MEAN_ELEMENT_THEORY = SGP/SGP4

EPOCH          = 2025-11-12T13:32:18.187296
MEAN_MOTION    = 14.50534587
ECCENTRICITY   = .0070348
INCLINATION    = 97.0779
RA_OF_ASC_NODE = 177.5803
ARG_OF_PERICENTER = 131.8358
MEAN_ANOMALY   = 228.8875

EPHEMERIS_TYPE = 0
CLASSIFICATION_TYPE = U
NORAD_CAT_ID   = 20323
ELEMENT_SET_NO = 999
REV_AT_EPOCH   = 87875
BSTAR          = .19946E-3
MEAN_MOTION_DOT = .771E-5
MEAN_MOTION_DDOT = 0

CCSDS_OMM_VERS = 2.0
CREATION_DATE  = 
ORIGINATOR     = 

OBJECT_NAME    = ARIANE 40 R/B
OBJECT_ID      = 1990-005H
CENTER_NAME    = EARTH
REF_FRAME      = TEME
TIME_SYSTEM    = UTC
MEAN_ELEMENT_THEORY = SGP/SGP4

EPOCH          = 2025-11-12T15:32:44.477664
MEAN_MOTION    = 14.39763684
ECCENTRICITY   = .0009959
INCLINATION    = 98.3284
RA_OF_ASC_NODE = 15.6702
ARG_OF_PERICENTER = 190.5370
MEAN_ANOMALY   = 169.5611

EPHEMERIS_TYPE = 0
CLASSIFICATION_TYPE = U
NORAD_CAT_ID   = 20443
ELEMENT_SET_NO = 999
REV_AT_EPOCH   = 87596
BSTAR          = .24859E-3
MEAN_MOTION_DOT = .737E-5
MEAN_MOTION_DDOT = 0

CCSDS_OMM_VERS = 2.0
CREATION_DATE  = 
ORIGINATOR     = 

OBJECT_NAME    = DELTA 2 R/B(1)
OBJECT_ID      = 1990-008B
CENTER_NAME    = EARTH
REF_FRAME      = TEME
TIME_SYSTEM    = UTC
MEAN_ELEMENT_THEORY = SGP/SGP4

EPOCH          = 2025-11-12T19:24:05.328000
MEAN_MOTION    = 15.42460788
ECCENTRICITY   = .0118082
INCLINATION    = 35.6067
RA_OF_ASC_NODE = 213.4052
ARG_OF_PERICENTER = 265.8813
MEAN_ANOMALY   = 92.8415

EPHEMERIS_TYPE = 0
CLASSIFICATION_TYPE = U
NORAD_CAT_ID   = 20453
ELEMENT_SET_NO = 999
REV_AT_EPOCH   = 90800
BSTAR          = .10635E-2
MEAN_MOTION_DOT = .61826E-3
MEAN_MOTION_DDOT = 0

CCSDS_OMM_VERS = 2.0
CREATION_DATE  = 
ORIGINATOR     = 

OBJECT_NAME    = COSMOS 2058
OBJECT_ID      = 1990-010A
CENTER_NAME    = EARTH
REF_FRAME      = TEME
TIME_SYSTEM    = UTC
MEAN_ELEMENT_THEORY = SGP/SGP4

EPOCH          = 2025-11-12T19:27:42.415776
MEAN_MOTION    = 15.10122872
ECCENTRICITY   = .0011107
INCLINATION    = 82.4658
RA_OF_ASC_NODE = 162.4744
ARG_OF_PERICENTER = 23.3716
MEAN_ANOMALY   = 336.8015

EPHEMERIS_TYPE = 0
CLASSIFICATION_TYPE = U
NORAD_CAT_ID   = 20465
ELEMENT_SET_NO = 999
REV_AT_EPOCH   = 92459
BSTAR          = .48892E-3
MEAN_MOTION_DOT = .8008E-4
MEAN_MOTION_DDOT = 0

CCSDS_OMM_VERS = 2.0
CREATION_DATE  = 
ORIGINATOR     = 

OBJECT_NAME    = SL-14 R/B
OBJECT_ID      = 1990-010B
CENTER_NAME    = EARTH
REF_FRAME      = TEME
TIME_SYSTEM    = UTC
MEAN_ELEMENT_THEORY = SGP/SGP4

EPOCH          = 2025-11-12T14:15:56.979936
MEAN_MOTION    = 14.83430654
ECCENTRICITY   = .001903
INCLINATION    = 82.5049
RA_OF_ASC_NODE = 17.3559
ARG_OF_PERICENTER = 329.5954
MEAN_ANOMALY   = 30.4155

EPHEMERIS_TYPE = 0
CLASSIFICATION_TYPE = U
NORAD_CAT_ID   = 20466
ELEMENT_SET_NO = 999
REV_AT_EPOCH   = 91112
BSTAR          = .10727E-3
MEAN_MOTION_DOT = .906E-5
MEAN_MOTION_DDOT = 0

CCSDS_OMM_VERS = 2.0
CREATION_DATE  = 
ORIGINATOR     = 

OBJECT_NAME    = SL-14 R/B
OBJECT_ID      = 1990-018B
CENTER_NAME    = EARTH
REF_FRAME      = TEME
TIME_SYSTEM    = UTC
MEAN_ELEMENT_THEORY = SGP/SGP4

EPOCH          = 2025-11-12T18:28:23.132352
MEAN_MOTION    = 14.82003372
ECCENTRICITY   = .0017811
INCLINATION    = 82.5206
RA_OF_ASC_NODE = 332.3805
ARG_OF_PERICENTER = 114.8036
MEAN_ANOMALY   = 245.5034

EPHEMERIS_TYPE = 0
CLASSIFICATION_TYPE = U
NORAD_CAT_ID   = 20511
ELEMENT_SET_NO = 999
REV_AT_EPOCH   = 90526
BSTAR          = .99124E-4
MEAN_MOTION_DOT = .812E-5
MEAN_MOTION_DDOT = 0

CCSDS_OMM_VERS = 2.0
CREATION_DATE  = 
ORIGINATOR     = 

OBJECT_NAME    = HST
OBJECT_ID      = 1990-037B
CENTER_NAME    = EARTH
REF_FRAME      = TEME
TIME_SYSTEM    = UTC
MEAN_ELEMENT_THEORY = SGP/SGP4

EPOCH          = 2025-11-12T17:49:57.398016
MEAN_MOTION    = 15.27460761
ECCENTRICITY   = .000137
INCLINATION    = 28.4675
RA_OF_ASC_NODE = 116.5719
ARG_OF_PERICENTER = 260.9920
MEAN_ANOMALY   = 99.0520

EPHEMERIS_TYPE = 0
CLASSIFICATION_TYPE = U
NORAD_CAT_ID   = 20580
ELEMENT_SET_NO = 999
REV_AT_EPOCH   = 75540
BSTAR          = .44825E-3
MEAN_MOTION_DOT = .12631E-3
MEAN_MOTION_DDOT = 0

CCSDS_OMM_VERS = 2.0
CREATION_DATE  = 
ORIGINATOR     = 

OBJECT_NAME    = SL-16 R/B
OBJECT_ID      = 1990-046B
CENTER_NAME    = EARTH
REF_FRAME      = TEME
TIME_SYSTEM    = UTC
MEAN_ELEMENT_THEORY = SGP/SGP4

EPOCH          = 2025-11-12T15:08:21.355008
MEAN_MOTION    = 14.14990700
ECCENTRICITY   = .0012284
INCLINATION    = 70.9973
RA_OF_ASC_NODE = 183.7529
ARG_OF_PERICENTER = 128.3645
MEAN_ANOMALY   = 231.8584

EPHEMERIS_TYPE = 0
CLASSIFICATION_TYPE = U
NORAD_CAT_ID   = 20625
ELEMENT_SET_NO = 999
REV_AT_EPOCH   = 83183
BSTAR          = -.72887E-4
MEAN_MOTION_DOT = -.189E-5
MEAN_MOTION_DDOT = 0

CCSDS_OMM_VERS = 2.0
CREATION_DATE  = 
ORIGINATOR     = 

OBJECT_NAME    = COSMOS 2084
OBJECT_ID      = 1990-055A
CENTER_NAME    = EARTH
REF_FRAME      = TEME
TIME_SYSTEM    = UTC
MEAN_ELEMENT_THEORY = SGP/SGP4

EPOCH          = 2025-11-12T14:23:46.295232
MEAN_MOTION    = 15.04753971
ECCENTRICITY   = .0036568
INCLINATION    = 62.7922
RA_OF_ASC_NODE = 14.6701
ARG_OF_PERICENTER = 171.0980
MEAN_ANOMALY   = 189.0777

EPHEMERIS_TYPE = 0
CLASSIFICATION_TYPE = U
NORAD_CAT_ID   = 20663
ELEMENT_SET_NO = 999
REV_AT_EPOCH   = 91869
BSTAR          = .46853E-3
MEAN_MOTION_DOT = .6536E-4
MEAN_MOTION_DDOT = 0

CCSDS_OMM_VERS = 2.0
CREATION_DATE  = 
ORIGINATOR     = 

OBJECT_NAME    = SL-6 R/B(2)
OBJECT_ID      = 1990-055D
CENTER_NAME    = EARTH
REF_FRAME      = TEME
TIME_SYSTEM    = UTC
MEAN_ELEMENT_THEORY = SGP/SGP4

EPOCH          = 2025-11-12T07:05:13.602912
MEAN_MOTION    = 15.02853617
ECCENTRICITY   = .00107691
INCLINATION    = 62.7840
RA_OF_ASC_NODE = 292.8436
ARG_OF_PERICENTER = 282.3661
MEAN_ANOMALY   = 77.6232

EPHEMERIS_TYPE = 0
CLASSIFICATION_TYPE = U
NORAD_CAT_ID   = 20666
ELEMENT_SET_NO = 999
REV_AT_EPOCH   = 92054
BSTAR          = .46701565E-3
MEAN_MOTION_DOT = .6107E-4
MEAN_MOTION_DDOT = 0

CCSDS_OMM_VERS = 2.0
CREATION_DATE  = 
ORIGINATOR     = 

OBJECT_NAME    = SL-8 R/B
OBJECT_ID      = 1990-078B
CENTER_NAME    = EARTH
REF_FRAME      = TEME
TIME_SYSTEM    = UTC
MEAN_ELEMENT_THEORY = SGP/SGP4

EPOCH          = 2025-11-12T13:06:15.645024
MEAN_MOTION    = 14.84255010
ECCENTRICITY   = .0381135
INCLINATION    = 82.9076
RA_OF_ASC_NODE = 356.2952
ARG_OF_PERICENTER = 46.9569
MEAN_ANOMALY   = 316.2903

EPHEMERIS_TYPE = 0
CLASSIFICATION_TYPE = U
NORAD_CAT_ID   = 20775
ELEMENT_SET_NO = 999
REV_AT_EPOCH   = 79189
BSTAR          = .86051E-3
MEAN_MOTION_DOT = .27879E-3
MEAN_MOTION_DDOT = 0

CCSDS_OMM_VERS = 2.0
CREATION_DATE  = 
ORIGINATOR     = 

OBJECT_NAME    = SL-8 R/B
OBJECT_ID      = 1991-006B
CENTER_NAME    = EARTH
REF_FRAME      = TEME
TIME_SYSTEM    = UTC
MEAN_ELEMENT_THEORY = SGP/SGP4

EPOCH          = 2025-11-12T19:37:39.302400
MEAN_MOTION    = 13.77484011
ECCENTRICITY   = .0022752
INCLINATION    = 82.9415
RA_OF_ASC_NODE = 256.9693
ARG_OF_PERICENTER = 6.2588
MEAN_ANOMALY   = 22.3594

EPHEMERIS_TYPE = 0
CLASSIFICATION_TYPE = U
NORAD_CAT_ID   = 21088
ELEMENT_SET_NO = 999
REV_AT_EPOCH   = 74798
BSTAR          = .16991E-3
MEAN_MOTION_DOT = .184E-5
MEAN_MOTION_DDOT = 0

